#dP2020  2 29  0  0  0.00000000     289 ORBIT ITRF  BHN ESOC                    
## 2094 518400.00000000   300.00000000 58908 0.0000000000000                    
+  108   G18G14G13G28G21G11G22G07G05G20G31G17G15G16G29G12G19                    
+        G23G02G25G01G30G24G27G06G09G03G32G26G08G10G04R09R20                    
+        R19R13R01R22R23R16R08R03R07R02R17R14R11R18R21R05R15                    
+        R12R04E11E12E19E18E14E26E24E30E08E09E01E02E07E03E04                    
+        E05E21E25E27E31E36E13E15E33C11C12C14C19C20C27C28C22                    
+        C21C29C30C23C24C26C25C32C33C35C34C36C37C06C07C08C09                    
+        C10C13C16J01J02J03  0  0  0  0  0  0  0  0  0  0  0                    
++         5  4  5  4  5  5  4  4  5  5  4  5  5  5  5  4  5                    
++         4  5  4  4  4  4  4  4  4  4  4  5  4  5  4  5  5                    
++         5  5  7  5  5  6  5  6  6  5  5  5  5  6  5  5  5                    
++         6  6  5  5  5  5  5  5  5  5  4  5  5  4  5  5  5                    
++         4  5  5  5  5  5  5  5  5  5  5  5  5  6  6  6  5                    
++         5  5  6  6  6  5  6  5  6  5  5  5  7  6  6  7  6                    
++         6  6  6  6  6  6  0  0  0  0  0  0  0  0  0  0  0                    
%c M  cc GPS ccc cccc cccc cccc cccc ccccc ccccc ccccc ccccc                    
%c cc cc ccc ccc cccc cccc cccc cccc ccccc ccccc ccccc ccccc                    
%f  0.0000000  0.000000000  0.00000000000  0.000000000000000                    
%f  0.0000000  0.000000000  0.00000000000  0.000000000000000                    
%i    0    0    0    0      0      0      0      0         0                    
%i    0    0    0    0      0      0      0      0         0                    
/* CCCCCCCCCCCCCCCCCCCCCCCCCCCCCCCCCCCCCCCCCCCCCCCCCCCCCCCCCCCCCCCCCCCCCCCCCCCCC
/* CCCCCCCCCCCCCCCCCCCCCCCCCCCCCCCCCCCCCCCCCCCCCCCCCCCCCCCCCCCCCCCCCCCCCCCCCCCCC
/* CCCCCCCCCCCCCCCCCCCCCCCCCCCCCCCCCCCCCCCCCCCCCCCCCCCCCCCCCCCCCCCCCCCCCCCCCCCCC
/* PCV:IGS        OL/AL:EOT11A   NONE     YN ORB:CoN CLK:CoN                    
*  2020  2 29 14 45  0.00000000                                                 
PG18 -19488.774388 -17935.602670  -3034.213367      4.948303                    
PG14   8700.245419 -16222.359023  19412.389918    -29.347882                    
PG13   6438.820629  13972.515899 -21780.465729     -9.274557                    
PG28 -12285.306770  21881.567927  -8320.600394    736.075466                    
PG21  17631.729722  -3303.997484 -18711.360487    -34.263062                    
PG11 -20825.019151 -13300.544062  -9829.213791   -347.328483                    
PG22 -11966.778201 -15457.084858  18252.802839   -785.203094                    
PG07 -19052.001041    492.002120 -18403.917927   -225.313894                    
PG05   3362.654711  24233.643532 -10222.493864     -8.359721                    
PG20  14579.330100 -12136.853801 -18592.067869    527.877784                    
PG31    287.924229 -18120.967985  19218.121026    -26.388626                    
PG17 -18304.889857  14287.572874  13270.466078    224.238199                    
PG15  16777.215557   8185.977516 -19330.284348   -248.208000                    
PG16   -739.329671 -24001.694958 -11039.859136   -129.821797                    
PG29  25877.838052  -3696.191399   4718.874414    -45.037625                    
PG12  11810.661816  10603.359799  21097.766989    145.902717                    
PG19 -11845.975732  15110.507161  18059.550096   -192.108585                    
PG23 -23774.454178   -936.356677  12548.154456   -132.985784                    
PG02   9342.107061  20343.546150  14993.895979   -413.571425                    
PG25  15452.789222  -2972.407752  21121.088255    -11.209557                    
PG01 -21861.776663 -14201.498006   5724.651397   -310.659255                    
PG30 -10985.271814  11190.914009 -21408.524924   -164.576973                    
PG24  22370.908337  14259.200476   3296.083385     -9.735182                    
PG27  -3482.209795 -14511.775918 -22081.723921   -225.143615                    
PG06  -2050.935933  16637.040049  20648.115769   -220.160085                    
PG09 -25504.984514   6617.158105   3372.494533   -166.364322                    
PG03 -13859.793125  -6850.371228  21549.519450   -106.176707                    
PG32  17001.065729 -15668.425416  13015.055841    224.703483                    
PG26   3821.965125 -26152.963691   -641.299405    158.202746                    
PG08 -15048.000463  -9114.691501 -19945.849418    -25.465551                    
PG10  11525.853741 -21343.186233 -10460.498023   -261.685439                    
PG04 -23123.455174  -2337.589615  12888.675446    -55.699195                    
PR09  12767.359670   4341.247222  21648.891197    119.362832                    
PR20  24823.311365   5738.304190    450.170060   -405.387396                    
PR19  14055.699012  11347.050649  18014.193146    -81.493824                    
PR13 -13167.477829  -7972.924662 -20360.586842    -35.466483                    
PR01  -1965.307250 -13771.720693  21385.552383     57.811342                    
PR22     42.378459 -10604.260053 -23193.651370    -15.982120                    
PR23 -19488.325590  -9937.217100 -13127.642302    289.516235                    
PR16  11615.131443  21716.405300   6865.188158     -1.814206                    
PR08   9912.579640 -20214.324920  12030.246158    -50.798998                    
PR03 -18131.278947  17224.353853   5192.927305     10.725695                    
PR07  17968.156908 -17493.356632  -4515.450696    -33.822421                    
PR02 -15965.323357   4320.493757  19479.393290    414.360207                    
PR17 -19292.104269   3800.461806  16245.101856    305.083288                    
PR14  -7483.040817  10559.886880 -21973.165699     48.621156                    
PR11  -2935.689071 -23230.216771  10178.682273    -15.155190                    
PR18  -3254.184423  10044.170188  23241.898007     26.807194                    
PR21  18697.600110  -4101.215356 -16864.281196   -108.157114                    
PR05   3728.950707  11709.057746 -22345.950328     45.867762                    
PR15   2425.326441  22898.457202 -10968.982454    106.011749                    
PR12 -10991.822565 -22063.878141  -6485.041356    109.903832                    
PR04  -9976.608814  20187.335352 -11960.911515     40.369550                    
PE11 -15810.336750   9631.345291  23104.297462   1498.336277                    
PE12 -27457.194625  -5266.088268   9767.878326   5927.367891                    
PE19 -11978.241636 -12242.669816  24144.675535     -1.326512                    
PE18   9428.059221  12500.391234  17579.868765  -1020.889932                    
PE14  -6549.084017 -19603.249187 -25147.449240   -923.178743                    
PE26  -5051.399338 -18663.297425 -22401.669169   3473.328828                    
PE24 -10955.762781  20006.975122 -18893.670183   5584.771989                    
PE30  16557.642674   1358.154487  24486.764643   4104.567062                    
PE08  25400.459527  -6227.574263 -13873.531718   6213.414030                    
PE09 -21937.874179  19390.668100  -4295.991639   6140.648467                    
PE01 -12507.946898 -21654.262807 -15834.886822   -804.995769                    
PE02  12533.970195  21615.575208  15878.284595    116.119607                    
PE07  22104.336465 -19239.417888   4211.488104   -347.716795                    
PE03  13953.963844  10787.579395 -23774.001788   -271.645091                    
PE04 -25440.058661   5811.151426  13976.649164   -475.629113                    
PE05  -5860.482364  21261.049426 -19742.356935   -401.247083                    
PE21  -1367.541634 -29497.112127   2009.117850   -585.358589                    
PE25   1290.078038  29499.325211  -2125.603246   -505.322057                    
PE27  10759.605821 -20117.944525  18852.421794    272.112503                    
PE31 -16509.243409  -1020.948046 -24544.464228   -471.861434                    
PE36   4866.338849  18429.238726  22656.029175    592.061224                    
PE13  15944.788651  -9470.344094 -23055.364693    398.808085                    
PE15  27411.959651   5037.922331  -9942.894450    875.603510                    
PE33 -22812.523454 -16586.332976  -8986.301319   -469.934225                    
PC11 -16522.419970  12122.129633  18984.529308   -211.879190                    
PC12 -27636.007389   1906.251630   3318.661883    325.179533                    
PC14 -15596.080658  22917.145316   2981.115860    194.858548                    
PC19   9663.888459 -25461.242779   6148.553923    338.835381                    
PC20  18798.025259 -17503.313060 -10924.108445   -788.310890                    
PC27  26914.805282   4549.135645   5731.344107    286.921328                    
PC28  13818.801060  13997.822616  19803.147049    277.864146                    
PC22  -5208.459755 -18801.653052  19969.333350   -893.089752                    
PC21 -17028.261244  -1249.112373  22088.957344   -124.636457                    
PC29   6702.024619 -15500.324168 -22216.946417    194.381589                    
PC30  24083.355944  -8269.882806 -11385.662787    279.406020                    
PC23  13712.156368  24306.872457    177.674014   -905.814545                    
PC24 -14192.736954   7747.827085 -22754.830269   -925.118108                    
PC26 -19853.017523 -10524.302632 -16534.115964    589.253793                    
PC25    586.963818  22988.721709 -15828.951506   -532.571076                    
PC32  17054.686471   1077.071760 -22046.933130   -882.474194                    
PC33  -9599.985522  25486.579319  -6039.700457   -934.197098                    
PC35 -14178.972827 -13610.084328 -19821.083377   -927.830080                    
PC34 -23895.178307   8441.226120  11714.971908   -509.567742                    
PC36    143.133045 -22876.702465  15999.930985   -825.334543                    
PC37  19625.578435  11613.360453  16109.063775   -868.598939                    
PC06 -23280.417642  25095.327048 -24508.730102    242.223799                    
PC07 -14613.383047  37869.266966 -10226.529960   -108.394214                    
PC08  -6774.581763  22419.526185  35205.726084   -136.407899                    
PC09  -8922.497651  25721.639576 -32047.761340    368.454782                    
PC10  -4959.736275  41593.107790   2211.177089   -708.755725                    
PC13   5903.011938  30412.007780  28815.838162    295.726562                    
PC16 -18905.314874  25801.131149 -27540.559539   -751.523109                    
PJ01 -31572.479648  27688.924076   8782.958116   -326.332017                    
PJ02 -19636.208857  24729.779872 -23488.888579     -1.596168                    
PJ03 -30371.656141  25766.953615  18862.433797     -0.791188                    
EOF                                                                             
